GOES 1 (SMS-C) [-]      
1 08366U 75100A   22315.51370240 -.00000208  00000+0  00000+0 0  9990
2 08366   7.9242 293.8936 0003035 281.1038 297.0091  1.00250702171894
GOES 2 [-]              
1 10061U 77048A   22315.28925535 -.00000262  00000+0  00000+0 0  9995
2 10061   9.5219 305.5551 0011126  21.1861 148.9287  0.99399936 33215
GOES 3 [-]              
1 10953U 78062A   22315.61963035 -.00000249  00000+0  00000+0 0  9991
2 10953   9.8611 310.1425 0001693 192.5431 292.5331  0.99366245115483
GOES 4 [-]              
1 11964U 80074A   22316.23913280 -.00000273  00000+0  00000+0 0  9993
2 11964  10.8294 313.9636 0031196  77.5964 263.7552  0.99234358114599
GOES 5 [-]              
1 12472U 81049A   22316.48105350 -.00000280  00000+0  00000+0 0  9997
2 12472  11.7057 325.4238 0001920 223.0380 329.5003  1.00279970109801
GOES 6 [-]              
1 14050U 83041A   22316.49077388 -.00000257  00000+0  00000+0 0  9999
2 14050  12.2842 330.7578 0003870 169.6985  12.6112  1.00263368202899
GOES 7 [-]              
1 17561U 87022A   22315.19285490  .00000113  00000+0  00000+0 0  9993
2 17561  14.1182 347.3519 0003764  72.1136 109.7519  0.99892994113838
GOES 8 [-]              
1 23051U 94022A   22315.93938557 -.00000202  00000+0  00000+0 0  9993
2 23051  13.3028  23.1472 0003477  45.1362 317.2196  0.98907431111138
GOES 9 [-]              
1 23581U 95025A   22315.40712340 -.00000039  00000+0  00000+0 0  9995
2 23581  12.7971  23.5300 0006566 126.5528 255.8338  0.98800162 99784
GOES 10 [-]             
1 24786U 97019A   22315.30049579  .00000074  00000+0  00000+0 0  9992
2 24786  11.5866  29.7578 0028274 203.8690 338.3833  0.99122156 93047
GOES 11 [-]             
1 26352U 00022A   22315.52644042  .00000071  00000+0  00000+0 0  9998
2 26352   8.9948  58.1353 0002666 171.9825 245.7453  0.99040744 39465
GOES 12 [-]             
1 26871U 01031A   22315.54084751 -.00000031  00000+0  00000+0 0  9999
2 26871   9.7814  47.2049 0003678 306.2057  90.7842  0.99138398 77743
EWS-G1 (GOES 13) [+]    
1 29155U 06018A   22316.54980008  .00000048  00000+0  00000+0 0  9995
2 29155   0.9495  94.2181 0006939 139.2286  77.4764  1.00271487 60342
GOES 14 [B]             
1 35491U 09033A   22316.44738366 -.00000084  00000+0  00000+0 0  9993
2 35491   0.2483 264.8013 0018454 316.6108 246.9991  1.00272896 48997
GOES 15 [B]             
1 36411U 10008A   22316.57817365  .00000064  00000+0  00000+0 0  9998
2 36411   0.2065 280.4690 0003665 276.4706 294.5743  1.00275923 46497
GOES 16 [+]             
1 41866U 16071A   22316.34832169 -.00000239  00000+0  00000+0 0  9993
2 41866   0.0368 273.1078 0001082   2.0053 186.5675  1.00270906 21942
GOES 17 [+]             
1 43226U 18022A   22316.56636052  .00000108  00000+0  00000+0 0  9994
2 43226   0.0147 271.7605 0000637 335.6775 230.8117  1.00272476 17279
GOES 18 [+]             
1 51850U 22021A   22312.54367326  .00000102  00000+0  00000+0 0  9993
2 51850   0.0048  46.0293 0002349 187.2312 233.2518  1.00271956  2589
